CALSPHERE 1             
1 00900U 64063C   26116.84884711  .00000689  00000+0  69156-3 0  9997
2 00900  90.2216  70.5617 0028393  86.4593 334.4060 13.76561435 64367
CALSPHERE 2             
1 00902U 64063E   26116.85094252  .00000073  00000+0  97129-4 0  9992
2 00902  90.2344  74.5622 0019378  22.3954  37.5334 13.52896223849326
LCS 1                   
1 01361U 65034C   26116.77400902  .00000014  00000+0  67713-3 0  9995
2 01361  32.1440 299.1030 0013195 299.1037  60.8139  9.89310174204792
TEMPSAT 1               
1 01512U 65065E   26116.83037825  .00000013  00000+0  83808-5 0  9998
2 01512  90.0009 212.5835 0070574  34.3741  90.7139 13.33591578953203
CALSPHERE 4A            
1 01520U 65065H   26116.80640957  .00000124  00000+0  22172-3 0  9998
2 01520  89.8963 123.0000 0067752 247.9615 287.0634 13.36268410955845
OPS 5712 (P/L 160)      
1 02826U 67053A   26116.86137545  .00006753  00000+0  96655-3 0  9998
2 02826  69.9167 164.0233 0002067 242.9268 117.1669 14.77005667 58653
OPS 5712 (P/L 153)      
1 02874U 67053H   26116.70774427  .00000016  00000+0  49789-4 0  9993
2 02874  69.9743 225.6452 0010062 264.2421  95.7538 13.96820648999592
RIGIDSPHERE 2 (LCS 4)   
1 05398U 71067E   26116.83205181  .00000642  00000+0  20254-3 0  9997
2 05398  87.6251 353.0723 0061689  44.7860 315.8295 14.37810084866502
COSMOS 2493 (SKRL-756 1)
1 39490U 13078A   26116.78866741  .00002707  00000+0  20485-3 0  9994
2 39490  82.4108 311.4694 0014383  61.6899 298.5774 15.01877489670247
COSMOS 2494 (SKRL-756 2)
1 39491U 13078B   26116.81177326  .00003299  00000+0  23283-3 0  9999
2 39491  82.4102 301.0479 0016475  24.2304 335.9694 15.04547048671086
